[
    {
        "Altitude(m)": 605470.747420346,
        "Argument of Periapsis(deg)": 0.0,
        "Eccentricity": 0.0,
        "Inclination(deg)": 60.0,
        "Latitude(deg)": 27.988067899838157,
        "Longitude(deg)": -137.7370136758146,
        "Mean Anomaly(deg)": 147.27269999999996,
        "RAAN(deg)": 160.0,
        "Satellite Name": "Test1 713",
        "Satellite Number": 713,
        "Semi-Major Axis(m)": 6980739.136638005,
        "Time(s)": 0
    },
    {
        "Altitude(m)": 605395.785688562,
        "Argument of Periapsis(deg)": 0.00010418945913296404,
        "Eccentricity": 0.0,
        "Inclination(deg)": 60.0,
        "Latitude(deg)": 27.473758126491454,
        "Longitude(deg)": -137.38382718392415,
        "Mean Anomaly(deg)": 147.8928061454618,
        "RAAN(deg)": 159.99957995086024,
        "Satellite Name": "Test1 713",
        "Satellite Number": 713,
        "Semi-Major Axis(m)": 6980739.136638005,
        "Time(s)": 10
    },
    {
        "Altitude(m)": 605322.6266368566,
        "Argument of Periapsis(deg)": 0.0002083789182659281,
        "Eccentricity": 0.0,
        "Inclination(deg)": 60.0,
        "Latitude(deg)": 26.958302567623427,
        "Longitude(deg)": -137.03428887165254,
        "Mean Anomaly(deg)": 148.51291229092362,
        "RAAN(deg)": 159.9991599017205,
        "Satellite Name": "Test1 713",
        "Satellite Number": 713,
        "Semi-Major Axis(m)": 6980739.136638005,
        "Time(s)": 20
    },
    {
        "Altitude(m)": 605251.3259395706,
        "Argument of Periapsis(deg)": 0.00031256837739889213,
        "Eccentricity": 0.0,
        "Inclination(deg)": 60.0,
        "Latitude(deg)": 26.441735725355333,
        "Longitude(deg)": -136.68829408972726,
        "Mean Anomaly(deg)": 149.1330184363855,
        "RAAN(deg)": 159.99873985258077,
        "Satellite Name": "Test1 713",
        "Satellite Number": 713,
        "Semi-Major Axis(m)": 6980739.136638005,
        "Time(s)": 30
    },
    {
        "Altitude(m)": 605181.9385430979,
        "Argument of Periapsis(deg)": 0.0004167578365318562,
        "Eccentricity": 0.0,
        "Inclination(deg)": 60.0,
        "Latitude(deg)": 25.924091247521748,
        "Longitude(deg)": -136.34573992134534,
        "Mean Anomaly(deg)": 149.75312458184732,
        "RAAN(deg)": 159.99831980344103,
        "Satellite Name": "Test1 713",
        "Satellite Number": 713,
        "Semi-Major Axis(m)": 6980739.136638005,
        "Time(s)": 40
    },
    {
        "Altitude(m)": 605114.5186369509,
        "Argument of Periapsis(deg)": 0.0005209472956648203,
        "Eccentricity": 0.0,
        "Inclination(deg)": 60.0,
        "Latitude(deg)": 25.405401960225596,
        "Longitude(deg)": -136.00652612604966,
        "Mean Anomaly(deg)": 150.37323072730916,
        "RAAN(deg)": 159.99789975430127,
        "Satellite Name": "Test1 713",
        "Satellite Number": 713,
        "Semi-Major Axis(m)": 6980739.136638005,
        "Time(s)": 50
    },
    {
        "Altitude(m)": 605049.1196251094,
        "Argument of Periapsis(deg)": 0.0006251367547977843,
        "Eccentricity": 0.0,
        "Inclination(deg)": 60.0,
        "Latitude(deg)": 24.885699899274904,
        "Longitude(deg)": -135.6705545715319,
        "Mean Anomaly(deg)": 150.993336872771,
        "RAAN(deg)": 159.99747970516154,
        "Satellite Name": "Test1 713",
        "Satellite Number": 713,
        "Semi-Major Axis(m)": 6980739.136638005,
        "Time(s)": 60
    },
    {
        "Altitude(m)": 604985.7940977718,
        "Argument of Periapsis(deg)": 0.0007293262139307483,
        "Eccentricity": 0.0,
        "Inclination(deg)": 60.0,
        "Latitude(deg)": 24.36501634054243,
        "Longitude(deg)": -135.33772866629238,
        "Mean Anomaly(deg)": 151.6134430182328,
        "RAAN(deg)": 159.9970596560218,
        "Satellite Name": "Test1 713",
        "Satellite Number": 713,
        "Semi-Major Axis(m)": 6980739.136638005,
        "Time(s)": 70
    },
    {
        "Altitude(m)": 604924.5938034233,
        "Argument of Periapsis(deg)": 0.0008335156730637124,
        "Eccentricity": 0.0,
        "Inclination(deg)": 60.0,
        "Latitude(deg)": 23.843381829287967,
        "Longitude(deg)": -135.00795430607712,
        "Mean Anomaly(deg)": 152.23354916369462,
        "RAAN(deg)": 159.99663960688207,
        "Satellite Name": "Test1 713",
        "Satellite Number": 713,
        "Semi-Major Axis(m)": 6980739.136638005,
        "Time(s)": 80
    },
    {
        "Altitude(m)": 604865.5696212933,
        "Argument of Periapsis(deg)": 0.0009377051321966765,
        "Eccentricity": 0.0,
        "Inclination(deg)": 60.0,
        "Latitude(deg)": 23.320826208477616,
        "Longitude(deg)": -134.6811393083891,
        "Mean Anomaly(deg)": 152.85365530915644,
        "RAAN(deg)": 159.9962195577423,
        "Satellite Name": "Test1 713",
        "Satellite Number": 713,
        "Semi-Major Axis(m)": 6980739.136638005,
        "Time(s)": 90
    },
    {
        "Altitude(m)": 604808.7715341726,
        "Argument of Periapsis(deg)": 0.0010418945913296407,
        "Eccentricity": 0.0,
        "Inclination(deg)": 60.0,
        "Latitude(deg)": 22.79737864613735,
        "Longitude(deg)": -134.35719284797318,
        "Mean Anomaly(deg)": 153.47376145461826,
        "RAAN(deg)": 159.99579950860257,
        "Satellite Name": "Test1 713",
        "Satellite Number": 713,
        "Semi-Major Axis(m)": 6980739.136638005,
        "Time(s)": 100
    },
    {
        "Altitude(m)": 604754.2486016665,
        "Argument of Periapsis(deg)": 0.0011460840504626045,
        "Eccentricity": 0.0,
        "Inclination(deg)": 60.0,
        "Latitude(deg)": 22.273067661780228,
        "Longitude(deg)": -134.0360264061758,
        "Mean Anomaly(deg)": 154.09386760008013,
        "RAAN(deg)": 159.99537945946284,
        "Satellite Name": "Test1 713",
        "Satellite Number": 713,
        "Semi-Major Axis(m)": 6980739.136638005,
        "Time(s)": 110
    },
    {
        "Altitude(m)": 604702.0489338533,
        "Argument of Periapsis(deg)": 0.0012502735095955685,
        "Eccentricity": 0.0,
        "Inclination(deg)": 60.0,
        "Latitude(deg)": 21.74792115193737,
        "Longitude(deg)": -133.7175532084489,
        "Mean Anomaly(deg)": 154.71397374554195,
        "RAAN(deg)": 159.9949594103231,
        "Satellite Name": "Test1 713",
        "Satellite Number": 713,
        "Semi-Major Axis(m)": 6980739.136638005,
        "Time(s)": 120
    },
    {
        "Altitude(m)": 604652.2196653384,
        "Argument of Periapsis(deg)": 0.0013544629687285324,
        "Eccentricity": 0.0,
        "Inclination(deg)": 60.0,
        "Latitude(deg)": 21.22196641482869,
        "Longitude(deg)": -133.40168766288335,
        "Mean Anomaly(deg)": 155.3340798910038,
        "RAAN(deg)": 159.99453936118334,
        "Satellite Name": "Test1 713",
        "Satellite Number": 713,
        "Semi-Major Axis(m)": 6980739.136638005,
        "Time(s)": 130
    },
    {
        "Altitude(m)": 604604.8069298014,
        "Argument of Periapsis(deg)": 0.0014586524278614966,
        "Eccentricity": 0.0,
        "Inclination(deg)": 60.0,
        "Latitude(deg)": 20.695230174210348,
        "Longitude(deg)": -133.0883463126512,
        "Mean Anomaly(deg)": 155.95418603646564,
        "RAAN(deg)": 159.9941193120436,
        "Satellite Name": "Test1 713",
        "Satellite Number": 713,
        "Semi-Major Axis(m)": 6980739.136638005,
        "Time(s)": 140
    },
    {
        "Altitude(m)": 604559.8558349614,
        "Argument of Periapsis(deg)": 0.0015628418869944607,
        "Eccentricity": 0.0,
        "Inclination(deg)": 60.0,
        "Latitude(deg)": 20.167738602424922,
        "Longitude(deg)": -132.7774472766126,
        "Mean Anomaly(deg)": 156.5742921819275,
        "RAAN(deg)": 159.99369926290385,
        "Satellite Name": "Test1 713",
        "Satellite Number": 713,
        "Semi-Major Axis(m)": 6980739.136638005,
        "Time(s)": 150
    },
    {
        "Altitude(m)": 604517.4104380335,
        "Argument of Periapsis(deg)": 0.0016670313461274247,
        "Eccentricity": 0.0,
        "Inclination(deg)": 60.0,
        "Latitude(deg)": 19.639517342690066,
        "Longitude(deg)": -132.468909690958,
        "Mean Anomaly(deg)": 157.1943983273893,
        "RAAN(deg)": 159.99327921376414,
        "Satellite Name": "Test1 713",
        "Satellite Number": 713,
        "Semi-Major Axis(m)": 6980739.136638005,
        "Time(s)": 160
    },
    {
        "Altitude(m)": 604477.5137216665,
        "Argument of Periapsis(deg)": 0.0017712208052603888,
        "Eccentricity": 0.0,
        "Inclination(deg)": 60.0,
        "Latitude(deg)": 19.11059153065747,
        "Longitude(deg)": -132.16265466475215,
        "Mean Anomaly(deg)": 157.8145044728511,
        "RAAN(deg)": 159.99285916462438,
        "Satellite Name": "Test1 713",
        "Satellite Number": 713,
        "Semi-Major Axis(m)": 6980739.136638005,
        "Time(s)": 170
    },
    {
        "Altitude(m)": 604440.2075703541,
        "Argument of Periapsis(deg)": 0.001875410264393353,
        "Eccentricity": 0.0,
        "Inclination(deg)": 60.0,
        "Latitude(deg)": 18.58098581526772,
        "Longitude(deg)": -131.85860472362518,
        "Mean Anomaly(deg)": 158.43461061831295,
        "RAAN(deg)": 159.99243911548464,
        "Satellite Name": "Test1 713",
        "Satellite Number": 713,
        "Semi-Major Axis(m)": 6980739.136638005,
        "Time(s)": 180
    },
    {
        "Altitude(m)": 604405.5327474109,
        "Argument of Periapsis(deg)": 0.0019795997235263173,
        "Eccentricity": 0.0,
        "Inclination(deg)": 60.0,
        "Latitude(deg)": 18.050724378932966,
        "Longitude(deg)": -131.5566832544704,
        "Mean Anomaly(deg)": 159.05471676377473,
        "RAAN(deg)": 159.99201906634488,
        "Satellite Name": "Test1 713",
        "Satellite Number": 713,
        "Semi-Major Axis(m)": 6980739.136638005,
        "Time(s)": 190
    }
]